[{"OBJECT_NAME":"STARLINK-3637","OBJECT_ID":"2022-017AH","EPOCH":"2026-03-09T02:14:54.917088","MEAN_MOTION":15.08836291,"ECCENTRICITY":0.00012489,"INCLINATION":53.2187,"RA_OF_ASC_NODE":351.7963,"ARG_OF_PERICENTER":89.4046,"MEAN_ANOMALY":270.7089,"EPHEMERIS_TYPE":0,"CLASSIFICATION_TYPE":"U","NORAD_CAT_ID":51799,"ELEMENT_SET_NO":999,"REV_AT_EPOCH":22383,"BSTAR":-4.38249e-7,"MEAN_MOTION_DOT":-2.95e-6,"MEAN_MOTION_DDOT":0},{"OBJECT_NAME":"STRIX-5","OBJECT_ID":"2025-229A","EPOCH":"2026-03-09T11:44:23.455104","MEAN_MOTION":15.03509399,"ECCENTRICITY":0.00369417,"INCLINATION":41.9265,"RA_OF_ASC_NODE":119.8574,"ARG_OF_PERICENTER":120.2079,"MEAN_ANOMALY":240.2413,"EPHEMERIS_TYPE":0,"CLASSIFICATION_TYPE":"U","NORAD_CAT_ID":65971,"ELEMENT_SET_NO":999,"REV_AT_EPOCH":2196,"BSTAR":0.00044899589,"MEAN_MOTION_DOT":6.129e-5,"MEAN_MOTION_DDOT":0}]
