STARLINK-3637           
1 51799U 22017AH  26068.09369117 -.00000295  00000+0 -43825-6 0  9996
2 51799  53.2187 351.7963 0001248  89.4046 270.7089 15.08836291223833
STRIX-5                 
1 65971U 25229A   26068.48916036  .00006129  00000+0  44900-3 0  9994
2 65971  41.9265 119.8574 0036941 120.2079 240.2413 15.03509399 21964
